[
  {
    "OBJECT_NAME": "STARLINK-31517",
    "OBJECT_ID": "24046N",
    "EPOCH": "2025-11-11T07:01:28.809984",
    "MEAN_MOTION": 15.30196593,
    "ECCENTRICITY": 0.0001102,
    "INCLINATION": 53.1608,
    "RA_OF_ASC_NODE": 345.2238,
    "ARG_OF_PERICENTER": 46.9509,
    "MEAN_ANOMALY": 313.1584,
    "EPHEMERIS_TYPE": 0,
    "CLASSIFICATION_TYPE": "U",
    "NORAD_CAT_ID": 59213,
    "ELEMENT_SET_NO": 999,
    "REV_AT_EPOCH": 9491,
    "BSTAR": 0.00010108,
    "MEAN_MOTION_DOT": 2.635e-05,
    "MEAN_MOTION_DDOT": 0.0,
    "TLE_LINE1": "1 59213U 24046N   25315.29269456  .00002635  00000+0  10108-3 0  9993",
    "TLE_LINE2": "2 59213  53.1608 345.2238 0001102  46.9509 313.1584 15.30196593 94919",
    "COMMENT": "Grouped by shell and plane from TLE"
  },
  {
    "OBJECT_NAME": "STARLINK-31604",
    "OBJECT_ID": "24046P",
    "EPOCH": "2025-11-11T07:06:01.895328",
    "MEAN_MOTION": 15.30196684,
    "ECCENTRICITY": 0.000151,
    "INCLINATION": 53.1605,
    "RA_OF_ASC_NODE": 345.2113,
    "ARG_OF_PERICENTER": 56.5543,
    "MEAN_ANOMALY": 303.5602,
    "EPHEMERIS_TYPE": 0,
    "CLASSIFICATION_TYPE": "U",
    "NORAD_CAT_ID": 59214,
    "ELEMENT_SET_NO": 999,
    "REV_AT_EPOCH": 9491,
    "BSTAR": 0.0,
    "MEAN_MOTION_DOT": -1.242e-05,
    "MEAN_MOTION_DDOT": 0.0,
    "TLE_LINE1": "1 59214U 24046P   25315.29585527 -.00001242  00000+0 -29795-4 0  9992",
    "TLE_LINE2": "2 59214  53.1605 345.2113 0001510  56.5543 303.5602 15.30196684 94912",
    "COMMENT": "Grouped by shell and plane from TLE"
  },
  {
    "OBJECT_NAME": "STARLINK-31434",
    "OBJECT_ID": "24046Q",
    "EPOCH": "2025-11-11T06:28:02.786016",
    "MEAN_MOTION": 15.30192574,
    "ECCENTRICITY": 7.25e-05,
    "INCLINATION": 53.163,
    "RA_OF_ASC_NODE": 345.051,
    "ARG_OF_PERICENTER": 113.6392,
    "MEAN_ANOMALY": 246.4685,
    "EPHEMERIS_TYPE": 0,
    "CLASSIFICATION_TYPE": "U",
    "NORAD_CAT_ID": 59215,
    "ELEMENT_SET_NO": 999,
    "REV_AT_EPOCH": 9491,
    "BSTAR": 4.9973000000000004e-05,
    "MEAN_MOTION_DOT": 1.121e-05,
    "MEAN_MOTION_DDOT": 0.0,
    "TLE_LINE1": "1 59215U 24046Q   25315.26947669  .00001121  00000+0  49973-4 0  9993",
    "TLE_LINE2": "2 59215  53.1630 345.0510 0000725 113.6392 246.4685 15.30192574 94914",
    "COMMENT": "Grouped by shell and plane from TLE"
  },
  {
    "OBJECT_NAME": "STARLINK-31417",
    "OBJECT_ID": "24046R",
    "EPOCH": "2025-11-11T06:17:34.332288",
    "MEAN_MOTION": 15.30201063,
    "ECCENTRICITY": 0.0001955,
    "INCLINATION": 53.1601,
    "RA_OF_ASC_NODE": 345.7151,
    "ARG_OF_PERICENTER": 81.0282,
    "MEAN_ANOMALY": 279.094,
    "EPHEMERIS_TYPE": 0,
    "CLASSIFICATION_TYPE": "U",
    "NORAD_CAT_ID": 59216,
    "ELEMENT_SET_NO": 999,
    "REV_AT_EPOCH": 9478,
    "BSTAR": 0.00018239,
    "MEAN_MOTION_DOT": 5.046e-05,
    "MEAN_MOTION_DDOT": 0.0,
    "TLE_LINE1": "1 59216U 24046R   25315.26220292  .00005046  00000+0  18239-3 0  9990",
    "TLE_LINE2": "2 59216  53.1601 345.7151 0001955  81.0282 279.0940 15.30201063 94788",
    "COMMENT": "Grouped by shell and plane from TLE"
  },
  {
    "OBJECT_NAME": "STARLINK-31499",
    "OBJECT_ID": "24046S",
    "EPOCH": "2025-11-11T06:43:14.344896",
    "MEAN_MOTION": 15.30210396,
    "ECCENTRICITY": 0.0001647,
    "INCLINATION": 53.1608,
    "RA_OF_ASC_NODE": 345.1152,
    "ARG_OF_PERICENTER": 79.3448,
    "MEAN_ANOMALY": 280.7739,
    "EPHEMERIS_TYPE": 0,
    "CLASSIFICATION_TYPE": "U",
    "NORAD_CAT_ID": 59217,
    "ELEMENT_SET_NO": 999,
    "REV_AT_EPOCH": 9491,
    "BSTAR": 0.00035974,
    "MEAN_MOTION_DOT": 0.00010313,
    "MEAN_MOTION_DDOT": 0.0,
    "TLE_LINE1": "1 59217U 24046S   25315.28002714  .00010313  00000+0  35974-3 0  9998",
    "TLE_LINE2": "2 59217  53.1608 345.1152 0001647  79.3448 280.7739 15.30210396 94912",
    "COMMENT": "Grouped by shell and plane from TLE"
  },
  {
    "OBJECT_NAME": "STARLINK-31421",
    "OBJECT_ID": "24046T",
    "EPOCH": "2025-11-11T06:35:38.886432",
    "MEAN_MOTION": 15.30194484,
    "ECCENTRICITY": 8e-05,
    "INCLINATION": 53.1615,
    "RA_OF_ASC_NODE": 345.1059,
    "ARG_OF_PERICENTER": 95.8333,
    "MEAN_ANOMALY": 264.2759,
    "EPHEMERIS_TYPE": 0,
    "CLASSIFICATION_TYPE": "U",
    "NORAD_CAT_ID": 59218,
    "ELEMENT_SET_NO": 999,
    "REV_AT_EPOCH": 9491,
    "BSTAR": 2.19e-05,
    "MEAN_MOTION_DOT": 2.9e-06,
    "MEAN_MOTION_DDOT": 0.0,
    "TLE_LINE1": "1 59218U 24046T   25315.27475563  .00000290  00000+0  21900-4 0  9992",
    "TLE_LINE2": "2 59218  53.1615 345.1059 0000800  95.8333 264.2759 15.30194484 94911",
    "COMMENT": "Grouped by shell and plane from TLE"
  },
  {
    "OBJECT_NAME": "STARLINK-31518",
    "OBJECT_ID": "24046U",
    "EPOCH": "2025-11-11T06:52:21.325152",
    "MEAN_MOTION": 15.30198103,
    "ECCENTRICITY": 0.0001195,
    "INCLINATION": 53.1627,
    "RA_OF_ASC_NODE": 345.1534,
    "ARG_OF_PERICENTER": 82.4367,
    "MEAN_ANOMALY": 277.677,
    "EPHEMERIS_TYPE": 0,
    "CLASSIFICATION_TYPE": "U",
    "NORAD_CAT_ID": 59219,
    "ELEMENT_SET_NO": 999,
    "REV_AT_EPOCH": 9491,
    "BSTAR": 7.521700000000001e-05,
    "MEAN_MOTION_DOT": 1.869e-05,
    "MEAN_MOTION_DDOT": 0.0,
    "TLE_LINE1": "1 59219U 24046U   25315.28635793  .00001869  00000+0  75217-4 0  9990",
    "TLE_LINE2": "2 59219  53.1627 345.1534 0001195  82.4367 277.6770 15.30198103 94913",
    "COMMENT": "Grouped by shell and plane from TLE"
  },
  {
    "OBJECT_NAME": "STARLINK-31523",
    "OBJECT_ID": "24046V",
    "EPOCH": "2025-11-11T07:15:08.226720",
    "MEAN_MOTION": 15.30216853,
    "ECCENTRICITY": 0.0001342,
    "INCLINATION": 53.1604,
    "RA_OF_ASC_NODE": 345.2519,
    "ARG_OF_PERICENTER": 70.2766,
    "MEAN_ANOMALY": 289.838,
    "EPHEMERIS_TYPE": 0,
    "CLASSIFICATION_TYPE": "U",
    "NORAD_CAT_ID": 59220,
    "ELEMENT_SET_NO": 999,
    "REV_AT_EPOCH": 9491,
    "BSTAR": 0.00021032,
    "MEAN_MOTION_DOT": 5.878e-05,
    "MEAN_MOTION_DDOT": 0.0,
    "TLE_LINE1": "1 59220U 24046V   25315.30217855  .00005878  00000+0  21032-3 0  9999",
    "TLE_LINE2": "2 59220  53.1604 345.2519 0001342  70.2766 289.8380 15.30216853 94911",
    "COMMENT": "Grouped by shell and plane from TLE"
  },
  {
    "OBJECT_NAME": "STARLINK-31516",
    "OBJECT_ID": "24046W",
    "EPOCH": "2025-11-11T06:38:40.736832",
    "MEAN_MOTION": 15.30198267,
    "ECCENTRICITY": 0.0001248,
    "INCLINATION": 53.1619,
    "RA_OF_ASC_NODE": 345.0932,
    "ARG_OF_PERICENTER": 115.0767,
    "MEAN_ANOMALY": 245.0364,
    "EPHEMERIS_TYPE": 0,
    "CLASSIFICATION_TYPE": "U",
    "NORAD_CAT_ID": 59221,
    "ELEMENT_SET_NO": 999,
    "REV_AT_EPOCH": 9491,
    "BSTAR": 5.0394000000000006e-05,
    "MEAN_MOTION_DOT": 1.134e-05,
    "MEAN_MOTION_DDOT": 0.0,
    "TLE_LINE1": "1 59221U 24046W   25315.27686038  .00001134  00000+0  50394-4 0  9994",
    "TLE_LINE2": "2 59221  53.1619 345.0932 0001248 115.0767 245.0364 15.30198267 94913",
    "COMMENT": "Grouped by shell and plane from TLE"
  },
  {
    "OBJECT_NAME": "STARLINK-31490",
    "OBJECT_ID": "24046X",
    "EPOCH": "2025-11-11T06:14:32.324640",
    "MEAN_MOTION": 15.30183656,
    "ECCENTRICITY": 9.89e-05,
    "INCLINATION": 53.1612,
    "RA_OF_ASC_NODE": 345.6986,
    "ARG_OF_PERICENTER": 68.3285,
    "MEAN_ANOMALY": 291.7821,
    "EPHEMERIS_TYPE": 0,
    "CLASSIFICATION_TYPE": "U",
    "NORAD_CAT_ID": 59222,
    "ELEMENT_SET_NO": 999,
    "REV_AT_EPOCH": 9490,
    "BSTAR": 4.0662e-05,
    "MEAN_MOTION_DOT": 8.45e-06,
    "MEAN_MOTION_DDOT": 0.0,
    "TLE_LINE1": "1 59222U 24046X   25315.26009635  .00000845  00000+0  40662-4 0  9991",
    "TLE_LINE2": "2 59222  53.1612 345.6986 0000989  68.3285 291.7821 15.30183656 94909",
    "COMMENT": "Grouped by shell and plane from TLE"
  },
  {
    "OBJECT_NAME": "STARLINK-31420",
    "OBJECT_ID": "24046Y",
    "EPOCH": "2025-11-11T06:09:58.432320",
    "MEAN_MOTION": 15.30199004,
    "ECCENTRICITY": 0.0001059,
    "INCLINATION": 53.159,
    "RA_OF_ASC_NODE": 345.6777,
    "ARG_OF_PERICENTER": 73.5517,
    "MEAN_ANOMALY": 286.56,
    "EPHEMERIS_TYPE": 0,
    "CLASSIFICATION_TYPE": "U",
    "NORAD_CAT_ID": 59223,
    "ELEMENT_SET_NO": 999,
    "REV_AT_EPOCH": 9490,
    "BSTAR": 6.0580000000000006e-05,
    "MEAN_MOTION_DOT": 1.435e-05,
    "MEAN_MOTION_DDOT": 0.0,
    "TLE_LINE1": "1 59223U 24046Y   25315.25692630  .00001435  00000+0  60580-4 0  9991",
    "TLE_LINE2": "2 59223  53.1590 345.6777 0001059  73.5517 286.5600 15.30199004 94909",
    "COMMENT": "Grouped by shell and plane from TLE"
  },
  {
    "OBJECT_NAME": "STARLINK-31622",
    "OBJECT_ID": "24068B",
    "EPOCH": "2025-11-11T03:59:16.475424",
    "MEAN_MOTION": 15.27587798,
    "ECCENTRICITY": 0.0001443,
    "INCLINATION": 42.9999,
    "RA_OF_ASC_NODE": 344.0894,
    "ARG_OF_PERICENTER": 253.5044,
    "MEAN_ANOMALY": 106.5649,
    "EPHEMERIS_TYPE": 0,
    "CLASSIFICATION_TYPE": "U",
    "NORAD_CAT_ID": 59456,
    "ELEMENT_SET_NO": 999,
    "REV_AT_EPOCH": 9039,
    "BSTAR": 0.0,
    "MEAN_MOTION_DOT": -2.285e-05,
    "MEAN_MOTION_DDOT": 0.0,
    "TLE_LINE1": "1 59456U 24068B   25315.16616291 -.00002285  00000+0 -73533-4 0  9990",
    "TLE_LINE2": "2 59456  42.9999 344.0894 0001443 253.5044 106.5649 15.27587798 90391",
    "COMMENT": "Grouped by shell and plane from TLE"
  },
  {
    "OBJECT_NAME": "STARLINK-31319",
    "OBJECT_ID": "24068C",
    "EPOCH": "2025-11-11T03:24:49.399488",
    "MEAN_MOTION": 15.27571817,
    "ECCENTRICITY": 0.0001422,
    "INCLINATION": 43.0049,
    "RA_OF_ASC_NODE": 340.4563,
    "ARG_OF_PERICENTER": 289.183,
    "MEAN_ANOMALY": 70.8868,
    "EPHEMERIS_TYPE": 0,
    "CLASSIFICATION_TYPE": "U",
    "NORAD_CAT_ID": 59457,
    "ELEMENT_SET_NO": 999,
    "REV_AT_EPOCH": 9043,
    "BSTAR": 0.0,
    "MEAN_MOTION_DOT": -1.176e-05,
    "MEAN_MOTION_DDOT": 0.0,
    "TLE_LINE1": "1 59457U 24068C   25315.14223842 -.00001176  00000+0 -33220-4 0  9992",
    "TLE_LINE2": "2 59457  43.0049 340.4563 0001422 289.1830  70.8868 15.27571817 90434",
    "COMMENT": "Grouped by shell and plane from TLE"
  }
]